[{"OBJECT_NAME":"STARLINK-3631","OBJECT_ID":"2022-017Y","EPOCH":"2026-03-09T23:21:25.113312","MEAN_MOTION":15.08823499,"ECCENTRICITY":0.00014429,"INCLINATION":53.2201,"RA_OF_ASC_NODE":347.8441,"ARG_OF_PERICENTER":107.023,"MEAN_ANOMALY":253.092,"EPHEMERIS_TYPE":0,"CLASSIFICATION_TYPE":"U","NORAD_CAT_ID":51790,"ELEMENT_SET_NO":999,"REV_AT_EPOCH":22401,"BSTAR":0.00023783046,"MEAN_MOTION_DOT":3.497e-5,"MEAN_MOTION_DDOT":0},{"OBJECT_NAME":"JILIN-01 KUANFU 02B 5","OBJECT_ID":"2024-169E","EPOCH":"2026-03-09T22:46:28.718400","MEAN_MOTION":15.09244096,"ECCENTRICITY":0.00111722,"INCLINATION":97.556,"RA_OF_ASC_NODE":160.0628,"ARG_OF_PERICENTER":294.0678,"MEAN_ANOMALY":65.9381,"EPHEMERIS_TYPE":0,"CLASSIFICATION_TYPE":"U","NORAD_CAT_ID":61193,"ELEMENT_SET_NO":999,"REV_AT_EPOCH":8086,"BSTAR":0.00034816655,"MEAN_MOTION_DOT":5.486e-5,"MEAN_MOTION_DDOT":0}]
